NORAD_CAT_ID,OBJECT_NAME,OBJECT_TYPE,EPOCH,MEAN_MOTION,ECCENTRICITY,INCLINATION,RA_OF_ASC_NODE,ARG_OF_PERICENTER,MEAN_ANOMALY,BSTAR,MEAN_MOTION_DOT,MEAN_MOTION_DDOT,TLE_LINE0,TLE_LINE1,TLE_LINE2,SEMIMAJOR_AXIS,PERIOD,APOGEE,PERIGEE,DECAYED
51759.0,STARLINK-3456,PAYLOAD,2022-11-21 03:32:03,15.08834859,0.0002189,53.2194,316.5332,40.5422,319.5733,-7.2189e-05,-1.437e-05,0.0,0 STARLINK-3456,1 51759U 22016AX  22325.14725905 -.00001437  00000-0 -72189-4 0  9993,2 51759  53.2194 316.5332 0002189  40.5422 319.5733 15.08834859 42999,6917.896,95.438,541.275,538.247,0.0
51759.0,STARLINK-3456,PAYLOAD,2022-11-21 09:53:34,15.08848812,0.0002239,53.218,315.3443,36.5158,323.5986,8.0812e-05,9.98e-06,0.0,0 STARLINK-3456,1 51759U 22016AX  22325.41220451  .00000998  00000-0  80812-4 0  9990,2 51759  53.2180 315.3443 0002239  36.5158 323.5986 15.08848812 43036,6917.853,95.437,541.2669999999998,538.17,0.0
51759.0,STARLINK-3456,PAYLOAD,2022-11-22 04:58:12,15.0884258,0.0002308,53.2196,311.7755,36.8275,323.2876,6.9243e-05,8.14e-06,0.0,0 STARLINK-3456,1 51759U 22016AX  22326.20708950  .00000814  00000-0  69243-4 0  9995,2 51759  53.2196 311.7755 0002308  36.8275 323.2876 15.08842580 43153,6917.873000000001,95.437,541.3340000000002,538.141,0.0
51759.0,STARLINK-3456,PAYLOAD,2022-11-22 06:33:35,15.08843404,0.0002292,53.2191,311.478,37.1294,322.9857,7.1419e-05,8.49e-06,0.0,0 STARLINK-3456,1 51759U 22016AX  22326.27332866  .00000849  00000-0  71419-4 0  9997,2 51759  53.2191 311.4780 0002292  37.1294 322.9857 15.08843404 42037,6917.87,95.437,541.321,538.149,0.0
51759.0,STARLINK-3456,PAYLOAD,2022-11-22 16:05:55,15.08830467,0.0002218,53.2187,309.6939,37.5817,322.533,3.7927e-05,3.15e-06,0.0,0 STARLINK-3456,1 51759U 22016AX  22326.67077874  .00000315  00000-0  37927-4 0  9990,2 51759  53.2187 309.6939 0002218  37.5817 322.5330 15.08830467 43229,6917.91,95.438,541.309,538.24,0.0
51759.0,STARLINK-3456,PAYLOAD,2022-11-23 07:59:46,15.08835483,0.0002299,53.2181,306.7194,38.9504,321.1654,0.00013153,1.805e-05,0.0,0 STARLINK-3456,1 51759U 22016AX  22327.33317532  .00001805  00000-0  13153-3 0  9991,2 51759  53.2181 306.7194 0002299  38.9504 321.1654 15.08835483 43329,6917.894,95.438,541.35,538.169,0.0
51759.0,STARLINK-3456,PAYLOAD,2022-11-23 15:56:41,15.08848194,0.000237,53.2183,305.2332,38.3176,321.7984,7.7302e-05,9.42e-06,0.0,0 STARLINK-3456,1 51759U 22016AX  22327.66436828  .00000942  00000-0  77302-4 0  9995,2 51759  53.2183 305.2332 0002370  38.3176 321.7984 15.08848194 43378,6917.855,95.437,541.36,538.081,0.0
51759.0,STARLINK-3456,PAYLOAD,2022-11-24 04:39:47,15.08839203,0.0002404,53.2182,302.8545,40.0027,320.1142,7.1424e-06,-1.75e-06,0.0,0 STARLINK-3456,1 51759U 22016AX  22328.19429629 -.00000175  00000-0  71424-5 0  9994,2 51759  53.2182 302.8545 0002404  40.0027 320.1142 15.08839203 43458,6917.8830000000025,95.438,541.411,538.085,0.0
51759.0,STARLINK-3456,PAYLOAD,2022-11-24 07:50:33,15.08839731,0.0002383,53.2179,302.2596,39.1899,320.9265,1.4672e-05,-5.5e-07,0.0,0 STARLINK-3456,1 51759U 22016AX  22328.32677583 -.00000055  00000-0  14672-4 0  9991,2 51759  53.2179 302.2596 0002383  39.1899 320.9265 15.08839731 42343,6917.880999999999,95.438,541.395,538.0980000000002,0.0
51759.0,STARLINK-3456,PAYLOAD,2022-11-25 07:41:20,15.08836361,0.0002273,53.2177,297.7989,40.6285,319.4876,4.1574e-05,3.73e-06,0.0,0 STARLINK-3456,1 51759U 22016AX  22329.32037725  .00000373  00000-0  41574-4 0  9993,2 51759  53.2177 297.7989 0002273  40.6285 319.4876 15.08836361 43628,6917.892,95.438,541.3290000000002,538.184,0.0
51759.0,STARLINK-3456,PAYLOAD,2022-11-26 07:32:07,15.08841782,0.0002303,53.2187,293.3389,37.9199,322.1955,6.0106e-05,6.68e-06,0.0,0 STARLINK-3456,1 51759U 22016AX  22330.31397283  .00000668  00000-0  60106-4 0  9991,2 51759  53.2187 293.3389 0002303  37.9199 322.1955 15.08841782 42645,6917.875,95.437,541.3330000000002,538.1469999999998,0.0
51759.0,STARLINK-3456,PAYLOAD,2022-11-27 05:47:31,15.08833052,0.0002329,53.2175,289.1771,34.7082,325.4061,-1.7658e-05,-5.69e-06,0.0,0 STARLINK-3456,1 51759U 22016AX  22331.24133813 -.00000569  00000-0 -17658-4 0  9997,2 51759  53.2175 289.1771 0002329  34.7082 325.4061 15.08833052 43910,6917.901999999999,95.438,541.378,538.155,0.0
51759.0,STARLINK-3456,PAYLOAD,2022-11-28 04:02:55,15.08841556,0.0002396,53.2182,285.0126,38.9113,321.2051,6.7253e-05,7.82e-06,0.0,0 STARLINK-3456,1 51759U 22016AX  22332.16869397  .00000782  00000-0  67253-4 0  9993,2 51759  53.2182 285.0126 0002396  38.9113 321.2051 15.08841556 44059,6917.876,95.437,541.398,538.0830000000002,0.0
51759.0,STARLINK-3456,PAYLOAD,2022-11-28 23:07:33,15.08834252,0.0002429,53.2179,281.4452,39.1927,320.9241,3.1366e-05,2.11e-06,0.0,0 STARLINK-3456,1 51759U 22016AX  22332.96357991  .00000211  00000-0  31366-4 0  9996,2 51759  53.2179 281.4452 0002429  39.1927 320.9241 15.08834252 44175,6917.898,95.438,541.443,538.0830000000002,0.0
51759.0,STARLINK-3456,PAYLOAD,2022-11-29 02:18:19,15.08841027,0.0002259,53.2175,280.8495,43.1723,316.9446,7.8308e-05,9.58e-06,0.0,0 STARLINK-3456,1 51759U 22016AX  22333.09605488  .00000958  00000-0  78308-4 0  9993,2 51759  53.2175 280.8495 0002259  43.1723 316.9446 15.08841027 44193,6917.877,95.437,541.305,538.18,0.0
51759.0,STARLINK-3456,PAYLOAD,2022-11-29 03:53:42,15.08841931,0.0002279,53.2177,280.5522,43.5128,316.6043,9.0859e-05,1.158e-05,0.0,0 STARLINK-3456,1 51759U 22016AX  22333.16229417  .00001158  00000-0  90859-4 0  9993,2 51759  53.2177 280.5522 0002279  43.5128 316.6043 15.08841931 43078,6917.874,95.437,541.316,538.163,0.0
51759.0,STARLINK-3456,PAYLOAD,2022-11-29 16:36:47,15.0884037,0.0002492,53.2181,278.1756,39.7258,320.3917,0.00016341,2.313e-05,0.0,0 STARLINK-3456,1 51759U 22016AX  22333.69221534  .00002313  00000-0  16341-3 0  9990,2 51759  53.2181 278.1756 0002492  39.7258 320.3917 15.08840370 43150,6917.879,95.438,541.4680000000002,538.02,0.0
51759.0,STARLINK-3456,PAYLOAD,2022-11-30 05:19:53,15.08826463,0.0002422,53.2179,275.7962,41.6361,318.4815,-1.2997e-05,-4.95e-06,0.0,0 STARLINK-3456,1 51759U 22016AX  22334.22215104 -.00000495  00000-0 -12997-4 0  9991,2 51759  53.2179 275.7962 0002422  41.6361 318.4815 15.08826463 44365,6917.922,95.438,541.462,538.111,0.0
51759.0,STARLINK-3456,PAYLOAD,2022-11-30 13:16:48,15.08835382,0.0002288,53.2184,274.3062,43.4116,316.7056,5.727e-05,6.23e-06,0.0,0 STARLINK-3456,1 51759U 22016AX  22334.55334432  .00000623  00000-0  57270-4 0  9997,2 51759  53.2184 274.3062 0002288  43.4116 316.7056 15.08835382 43283,6917.895,95.438,541.342,538.177,0.0
51759.0,STARLINK-3456,PAYLOAD,2022-11-30 19:38:21,15.08840661,0.0002293,53.2185,273.1171,41.4596,318.657,1.3881e-05,-6.7e-07,0.0,0 STARLINK-3456,1 51759U 22016AX  22334.81830399 -.00000067  00000-0  13881-4 0  9992,2 51759  53.2185 273.1171 0002293  41.4596 318.6570 15.08840661 43321,6917.878000000002,95.438,541.33,538.1569999999998,0.0
51759.0,STARLINK-3456,PAYLOAD,2022-12-01 05:10:39,15.08850852,0.0002474,53.2184,271.3348,39.9646,320.1527,0.00011597,1.558e-05,0.0,0 STARLINK-3456,1 51759U 22016AX  22335.21573484  .00001558  00000-0  11597-3 0  9992,2 51759  53.2184 271.3348 0002474  39.9646 320.1527 15.08850852 44510,6917.847,95.437,541.424,538.001,0.0
51759.0,STARLINK-3456,PAYLOAD,2022-12-01 13:07:35,15.08840816,0.0002218,53.2173,269.8486,44.4035,315.7135,7.37e-05,8.85e-06,0.0,0 STARLINK-3456,1 51759U 22016AX  22335.54694033  .00000885  00000-0  73700-4 0  9999,2 51759  53.2173 269.8486 0002218  44.4035 315.7135 15.08840816 43436,6917.878000000002,95.438,541.2769999999998,538.2090000000002,0.0
51759.0,STARLINK-3456,PAYLOAD,2022-12-02 12:58:22,15.08848313,0.0002415,53.2166,265.388,31.4708,328.6428,0.00019277,2.782e-05,0.0,0 STARLINK-3456,1 51759U 22016AX  22336.54053518  .00002782  00000-0  19277-3 0  9993,2 51759  53.2166 265.3880 0002415  31.4708 328.6428 15.08848313 43583,6917.855,95.437,541.391,538.049,0.0
51759.0,STARLINK-3456,PAYLOAD,2022-12-03 04:52:14,15.088400199999995,0.0002518,53.2176,262.4144,40.1986,319.9192,-2.4777e-05,-6.83e-06,0.0,0 STARLINK-3456,1 51759U 22016AX  22337.20294023 -.00000683  00000-0 -24777-4 0  9997,2 51759  53.2176 262.4144 0002518  40.1986 319.9192 15.08840020 44819,6917.88,95.438,541.487,538.003,0.0
51759.0,STARLINK-3456,PAYLOAD,2022-12-03 12:49:10,15.08835236,0.0002514,53.2167,260.9281,37.4959,322.6208,-8.9835e-05,-1.718e-05,0.0,0 STARLINK-3456,1 51759U 22016AX  22337.53414363 -.00001718  00000-0 -89835-4 0  9990,2 51759  53.2167 260.9281 0002514  37.4959 322.6208 15.08835236 43731,6917.895,95.438,541.499,538.021,0.0
51759.0,STARLINK-3456,PAYLOAD,2022-12-03 19:10:42,15.08836351,0.0002443,53.2166,259.7377,37.5215,322.5947,9.554e-06,-1.36e-06,0.0,0 STARLINK-3456,1 51759U 22016AX  22337.79910405 -.00000136  00000-0  95540-5 0  9999,2 51759  53.2166 259.7377 0002443  37.5215 322.5947 15.08836351 43771,6917.892,95.438,541.447,538.067,0.0
51759.0,STARLINK-3456,PAYLOAD,2022-12-04 04:43:01,15.08843643,0.0002429,53.2167,257.9535,40.0229,320.0941,0.000119,1.606e-05,0.0,0 STARLINK-3456,1 51759U 22016AX  22338.19654112  .00001606  00000-0  11900-3 0  9992,2 51759  53.2167 257.9535 0002429  40.0229 320.0941 15.08843643 43832,6917.869000000002,95.437,541.415,538.054,0.0
51759.0,STARLINK-3456,PAYLOAD,2022-12-04 19:01:29,15.08844456,0.0002444,53.2167,255.2771,38.5999,321.5167,0.00031275,4.693e-05,0.0,0 STARLINK-3456,1 51759U 22016AX  22338.79270314  .00004693  00000-0  31275-3 0  9992,2 51759  53.2167 255.2771 0002444  38.5999 321.5167 15.08844456 43927,6917.8669999999975,95.437,541.422,538.0409999999998,0.0
51759.0,STARLINK-3456,PAYLOAD,2022-12-05 02:58:25,15.0884758,0.0002344,53.216,253.79,33.758,326.3561,0.00028294,4.219e-05,0.0,0 STARLINK-3456,1 51759U 22016AX  22339.12390131  .00004219  00000-0  28294-3 0  9991,2 51759  53.2160 253.7900 0002344  33.7580 326.3561 15.08847580 45103,6917.857,95.437,541.344,538.101,0.0
